OBJECT_NAME,OBJECT_ID,EPOCH,MEAN_MOTION,ECCENTRICITY,INCLINATION,RA_OF_ASC_NODE,ARG_OF_PERICENTER,MEAN_ANOMALY,EPHEMERIS_TYPE,CLASSIFICATION_TYPE,NORAD_CAT_ID,ELEMENT_SET_NO,REV_AT_EPOCH,BSTAR,MEAN_MOTION_DOT,MEAN_MOTION_DDOT
YAMAL 601,2019-031A,2025-02-08T04:46:38.574048,1.00269837,.0002771,0.0115,128.0763,183.1084,307.9960,0,U,44307,999,2096,0,.114E-5,0
BUFENG 1A,2019-032A,2025-02-08T18:40:46.202592,15.14728447,.0010485,44.9749,207.0647,305.1032,54.8862,0,U,44310,999,31203,.8554E-3,.15912E-3,0
BUFENG 1B,2019-032B,2025-02-08T18:58:39.770112,15.21106710,.0011627,44.9736,161.9525,341.0342,19.0104,0,U,44311,999,31257,.73546E-3,.16439E-3,0
JILIN-1 GAOFEN 3A,2019-032C,2025-02-08T18:22:41.037600,15.19256358,.0011106,44.9823,165.0804,337.5918,22.4475,0,U,44312,999,31254,.6748E-3,.14252E-3,0
XIAOXIANG 4,2019-032D,2025-02-08T15:07:56.461440,15.37979396,.0014997,44.9938,126.6611,350.0267,10.0320,0,U,44313,999,31302,.12392E-2,.47395E-3,0
TIANQI-3,2019-032E,2025-02-08T18:49:08.956416,15.20799201,.0012163,44.9806,161.0377,341.8296,18.2148,0,U,44314,999,31259,.7848E-3,.17407E-3,0
RCM-1,2019-033A,2025-02-08T15:49:51.079872,14.92595172,.0001572,97.7595,49.1468,88.9902,271.1497,0,U,44322,999,30846,.19894E-3,.1991E-4,0
RCM-3,2019-033B,2025-02-08T19:35:29.183136,14.92594664,.0001483,97.7595,49.3967,91.5018,268.6371,0,U,44323,999,30850,.22606E-3,.227E-4,0
RCM-2,2019-033C,2025-02-08T18:30:56.753280,14.92593600,.0001527,97.7596,49.3046,90.6540,269.4854,0,U,44324,999,30848,.17017E-3,.1695E-4,0
AT&T T-16,2019-034A,2025-02-08T12:24:42.542784,1.00275489,.0001085,0.0139,93.7691,79.8074,50.5774,0,U,44333,999,2068,0,-.123E-5,0
EUTELSAT 7C,2019-034B,2025-02-08T04:47:38.713632,1.00269872,.0003461,0.0716,190.1409,114.4655,272.8205,0,U,44334,999,188,0,.41E-6,0
BEIDOU-3 IGSO-2,2019-035A,2025-02-07T22:40:09.959808,1.00265877,.0036122,55.2003,163.2008,199.4522,233.5731,0,U,44337,999,2074,0,-.156E-5,0
PROX-1,2019-036A,2025-02-08T15:26:33.545184,14.75836503,.0008496,23.9972,133.9197,130.0494,230.0748,0,U,44339,999,30019,.26288E-2,.1872E-3,0
NPSAT1,2019-036B,2025-02-08T01:24:19.133856,14.67210373,.000972,23.9973,178.7509,54.7128,305.4275,0,U,44340,999,29964,.16305E-2,.9615E-4,0
OTB,2019-036C,2025-02-08T19:32:29.581728,14.55536347,.0011428,23.9954,222.2757,345.7020,14.3148,0,U,44341,999,29936,.60632E-3,.2908E-4,0
FORMOSAT 7-3,2019-036E,2025-02-08T02:32:45.051936,15.08633879,.0001498,24.0007,329.5853,18.7900,341.2659,0,U,44343,999,30857,.59968E-3,.9987E-4,0
DSX,2019-036F,2025-02-05T14:25:51.518208,4.54375374,.196065,42.1935,172.3191,162.1064,205.9430,0,U,44344,999,9322,0,.3E-7,0
FORMOSAT 7-1,2019-036L,2025-02-08T13:40:20.812512,15.08636195,.000095,23.9980,142.3878,332.2066,27.8387,0,U,44349,999,31041,.59679E-3,.9941E-4,0
FORMOSAT 7-4,2019-036M,2025-02-08T12:36:14.966208,15.08634375,.0001974,23.9960,204.7819,28.1643,331.8967,0,U,44350,999,30982,.59913E-3,.9979E-4,0
FORMOSAT 7-2,2019-036N,2025-02-08T19:29:38.077728,15.08633755,.0002211,23.9966,257.1422,30.2888,329.7743,0,U,44351,999,30943,.57601E-3,.9607E-4,0
FORMOSAT 7-6,2019-036Q,2025-02-08T11:33:16.934400,15.08628689,.0000907,23.9994,80.2320,14.3914,345.6616,0,U,44353,999,30756,.57171E-3,.9535E-4,0
FORMOSAT 7-5,2019-036V,2025-02-08T14:11:49.082784,15.08641263,.0001167,24.0009,19.2589,23.1778,336.8778,0,U,44358,999,30810,.6224E-3,.10355E-3,0
METEOR-M2 2,2019-038A,2025-02-08T19:10:21.430560,14.24135709,.0001721,98.8604,16.3853,40.1147,320.0158,0,U,44387,999,29106,.14038E-3,.278E-5,0
ICEYE-X5,2019-038C,2025-02-08T18:54:13.225248,15.25769804,.0010827,97.9217,51.2558,197.1400,162.9472,0,U,44389,999,30708,.85257E-3,.2177E-3,0
ICEYE-X4,2019-038D,2025-02-08T20:16:25.269024,15.16753882,.0015549,97.9042,42.4868,212.6905,147.3365,0,U,44390,999,30671,.53655E-3,.10494E-3,0
SONATE,2019-038Q,2025-02-08T11:45:29.601216,15.57880911,.0008692,97.7100,53.8334,352.3979,7.7142,0,U,44400,999,31054,.85592E-3,.64229E-3,0
MOMENTUS-X1,2019-038Y,2025-02-08T12:17:54.276000,15.37801044,.0014424,97.7236,45.4890,14.1517,346.0128,0,U,44408,999,31006,.62284E-3,.23166E-3,0
COSMOS 2538,2019-039D,2025-02-08T19:23:38.075712,15.12968819,.0048846,97.6405,112.0153,314.2251,45.4973,0,U,44424,999,30510,.48516E-3,.8744E-4,0
YAOGAN-30 06A,2019-045A,2025-02-08T19:20:24.950976,14.98729644,.0004897,34.9943,89.0052,282.8961,77.1198,0,U,44449,999,30248,.47423E-3,.5797E-4,0
YAOGAN-30 06B,2019-045B,2025-02-08T14:01:29.877312,14.98690184,.0007097,34.9934,89.9245,89.4648,270.6872,0,U,44450,999,30245,.46926E-3,.5731E-4,0
YAOGAN-30 06C,2019-045C,2025-02-08T19:53:18.100608,14.98699888,.0001149,34.9946,88.3018,239.6597,120.3996,0,U,44451,999,30245,.46562E-3,.5685E-4,0
MERIDIAN 8,2019-046A,2025-02-08T05:49:49.267776,2.00598580,.6873392,62.7651,111.1857,273.6231,16.6613,0,U,44453,999,4043,0,.93E-6,0
COSMOS 2539,2019-048A,2025-02-08T04:47:38.713632,1.00269439,.000067,0.0222,116.5503,225.1263,240.7457,0,U,44457,999,2027,0,.74E-6,0
EDRS-C,2019-049A,2025-02-07T12:43:32.837088,1.00268644,.0000431,0.0839,253.8387,26.2300,79.8938,0,U,44475,999,2025,0,.15E-5,0
INTELSAT 39 (IS-39),2019-049B,2025-02-08T04:42:54.804096,1.00269703,.00008,0.0145,94.1117,80.5504,96.5178,0,U,44476,999,2017,0,.28E-6,0
AMOS-17,2019-050A,2025-02-08T04:30:01.637280,1.00273013,.0001735,0.0191,347.5850,323.0174,272.4203,0,U,44479,999,2023,0,.103E-5,0
AEHF-5 (USA 292),2019-051A,2025-02-08T03:07:57.393696,1.00272734,.0059671,2.2278,311.9580,12.3428,311.1754,0,U,44481,999,2030,0,-.235E-5,0
BRO-1,2019-054A,2025-02-08T18:03:15.579360,15.35344598,.000325,45.0075,210.8529,230.1506,129.9094,0,U,44495,999,30308,.77719E-3,.27E-3,0
PEARL WHITE 1,2019-054C,2025-02-08T18:50:31.254144,15.58052874,.0010312,45.0046,164.2702,295.7032,64.2798,0,U,44497,999,30358,.13038E-2,.101487E-2,0
PEARL WHITE 2,2019-054D,2025-02-08T16:44:36.593664,15.85586064,.0016214,44.9959,142.7779,345.0808,14.9617,0,U,44498,999,30385,.15757E-2,.414318E-2,0
GLOBAL-4,2019-054E,2025-02-08T13:36:25.795872,15.39236782,.0008087,45.0132,131.4871,323.7561,36.2778,0,U,44499,999,30397,.75728E-3,.29904E-3,0
NAVSTAR 78 (USA 293),2019-056A,2025-02-07T07:30:00.236736,2.00559768,.0048743,55.8140,350.7784,194.6665,347.6946,0,U,44506,999,4014,0,-.102E-5,0
COSMOS 2540,2019-057A,2025-02-08T19:43:21.849024,13.85943025,.0015791,99.2329,54.3271,41.4133,318.8217,0,U,44517,999,27553,.46226E-3,.488E-5,0
KX-09,2019-058B,2025-02-08T19:37:26.147136,14.94580305,.0010593,97.7899,51.1847,182.6198,177.4968,0,U,44520,999,29628,.26013E-3,.2759E-4,0
ZY-1 02D,2019-059A,2025-02-08T18:23:21.463296,14.35427194,.0002334,98.3830,111.9308,131.5332,228.6054,0,U,44528,999,28355,.1546E-3,.402E-5,0
BNU-1 (JINGSHI 1),2019-059B,2025-02-08T18:33:27.872064,14.47480905,.0014107,98.5510,156.6609,68.8653,291.4045,0,U,44529,999,28558,.3485E-3,.1236E-4,0
TAURUS-1 (JINNIUZUO 1),2019-059C,2025-02-08T19:07:52.997952,14.62752637,.0009317,98.5899,173.8281,47.7754,312.4235,0,U,44530,999,28626,.23604E-2,.12007E-3,0
ZHUHAI-1 03A,2019-060A,2025-02-08T19:00:53.537184,15.50009130,.0010169,97.5052,179.0696,258.8538,101.1570,0,U,44534,999,30043,.13113E-2,.74141E-3,0
ZHUHAI-1 03B,2019-060C,2025-02-08T20:29:49.503552,15.33785262,.0011935,97.4995,178.6386,302.8489,57.1604,0,U,44536,999,30041,.1003E-2,.32865E-3,0
ZHUHAI-1 03C,2019-060D,2025-02-08T19:01:55.719264,15.35075824,.0020089,97.5241,179.6451,270.9164,88.9777,0,U,44537,999,30053,.1E-2,.34285E-3,0
ZHUHAI-1 03D,2019-060E,2025-02-08T19:52:09.047136,15.28323132,.0011991,97.4813,174.4681,279.5772,80.4113,0,U,44538,999,30033,.95E-3,.26248E-3,0
ZHUHAI-1 03E,2019-060F,2025-02-08T19:51:10.846368,15.29602149,.0012611,97.5053,176.4699,323.3120,36.7256,0,U,44539,999,30023,.90394E-3,.25975E-3,0
BEIDOU-3 M24,2019-061A,2025-02-07T04:04:31.689408,1.86228980,.0008598,54.4224,199.4232,19.0126,340.9908,0,U,44542,999,3657,0,.7E-6,0
BEIDOU-3 M23,2019-061B,2025-02-04T21:13:25.343904,1.86229054,.0005208,54.4214,199.4688,17.9296,162.4224,0,U,44543,999,3653,0,.95E-6,0
YUNHAI-1 02,2019-063A,2025-02-08T16:30:57.298752,14.33208623,.0006236,98.4323,58.9223,188.0708,172.0377,0,U,44547,999,28120,.21699E-3,.554E-5,0
COSMOS 2541,2019-065A,2025-02-08T18:28:50.321568,2.00586069,.6523727,62.7445,202.7057,272.6313,19.8129,0,U,44552,999,3935,0,-.125E-5,0
GAOFEN-10R,2019-066A,2025-02-08T19:06:54.165600,14.82386751,.0003542,97.9911,346.9027,291.2055,68.8779,0,U,44622,999,28926,.41375E-3,.326E-4,0
EUTELSAT 5 WEST B,2019-067A,2025-02-08T06:34:38.551584,1.00271660,.0003312,0.0807,318.7326,358.8428,274.6525,0,U,44624,999,1948,0,-.49E-6,0
MEV-1,2019-067B,2025-02-08T05:11:38.789952,1.00270787,.0002312,0.0216,110.6983,230.6381,207.6317,0,U,44625,999,1940,0,-.209E-5,0
PALISADE,2019-069A,2025-02-08T08:40:37.288416,13.11886767,.0008114,87.8947,17.9189,321.5117,38.5431,0,U,44634,999,25436,-.40725E-3,-.133E-5,0
TJS-4,2019-070A,2025-02-08T04:04:38.574624,1.00272407,.0005323,0.0270,129.7330,222.1385,291.3497,0,U,44637,999,1951,0,-.177E-5,0
GAOFEN-7,2019-072A,2025-02-08T18:47:08.476800,15.21186542,.0009216,97.3073,112.7468,322.6700,37.3894,0,U,44703,999,29262,.31912E-3,.7056E-4,0
BEIDOU-3 IGSO-3,2019-073A,2025-02-08T01:52:36.471360,1.00285035,.0041159,55.6449,286.2183,182.8793,177.1855,0,U,44709,999,1950,0,-.166E-5,0
STARLINK-1008,2019-074B,2025-02-08T14:30:13.324896,15.06384120,.0001384,53.0547,155.7328,103.9225,256.1918,0,U,44714,999,28952,-.20503E-4,-.587E-5,0
STARLINK-1009,2019-074C,2025-02-08T22:00:01.999584,15.87721665,.000808,53.0481,117.4008,29.1591,200.1609,0,U,44715,999,29007,.76771E-3,.215054E-2,0
STARLINK-1010,2019-074D,2025-02-08T14:40:50.717568,15.06385332,.0001425,53.0549,155.7043,84.8734,275.2418,0,U,44716,999,28933,-.64437E-4,-.1241E-4,0
STARLINK-1011,2019-074E,2025-02-08T16:13:43.254912,15.06398801,.0001489,53.0552,175.4180,97.9095,262.2063,0,U,44717,999,28925,-.20844E-3,-.3385E-4,0
STARLINK-1012,2019-074F,2025-02-08T13:58:22.264032,15.06391978,.0001033,53.0543,155.8289,112.1874,247.9224,0,U,44718,999,28934,-.54633E-4,-.1095E-4,0
